[{"OBJECT_NAME":"COSMOS 2490 (RODNIK-S 9)","OBJECT_ID":"2013-076C","EPOCH":"2026-03-04T04:14:31.526592","MEAN_MOTION":12.42874035,"ECCENTRICITY":0.0020875,"INCLINATION":82.4778,"RA_OF_ASC_NODE":233.573,"ARG_OF_PERICENTER":342.3288,"MEAN_ANOMALY":17.7063,"EPHEMERIS_TYPE":0,"CLASSIFICATION_TYPE":"U","NORAD_CAT_ID":39485,"ELEMENT_SET_NO":999,"REV_AT_EPOCH":55283,"BSTAR":2.0406e-5,"MEAN_MOTION_DOT":1.3e-7,"MEAN_MOTION_DDOT":0},{"OBJECT_NAME":"AIST-1 (RS41)","OBJECT_ID":"2013-078C","EPOCH":"2026-03-04T05:01:16.506912","MEAN_MOTION":14.95734004,"ECCENTRICITY":0.0015193,"INCLINATION":82.4185,"RA_OF_ASC_NODE":12.5464,"ARG_OF_PERICENTER":270.6004,"MEAN_ANOMALY":89.3477,"EPHEMERIS_TYPE":0,"CLASSIFICATION_TYPE":"U","NORAD_CAT_ID":39492,"ELEMENT_SET_NO":999,"REV_AT_EPOCH":65955,"BSTAR":0.00032508,"MEAN_MOTION_DOT":3.653e-5,"MEAN_MOTION_DDOT":0},{"OBJECT_NAME":"KAZEOSAT 1","OBJECT_ID":"2014-024A","EPOCH":"2026-03-04T04:19:03.810144","MEAN_MOTION":14.42031434,"ECCENTRICITY":0.0001045,"INCLINATION":98.3299,"RA_OF_ASC_NODE":138.2065,"ARG_OF_PERICENTER":82.0783,"MEAN_ANOMALY":278.0525,"EPHEMERIS_TYPE":0,"CLASSIFICATION_TYPE":"U","NORAD_CAT_ID":39731,"ELEMENT_SET_NO":999,"REV_AT_EPOCH":62342,"BSTAR":3.6674e-5,"MEAN_MOTION_DOT":7.8e-7,"MEAN_MOTION_DDOT":0},{"OBJECT_NAME":"COSMOS 2496 (RODNIK-S 10)","OBJECT_ID":"2014-028A","EPOCH":"2026-03-04T05:09:20.892096","MEAN_MOTION":12.42874012,"ECCENTRICITY":0.0018749,"INCLINATION":82.4501,"RA_OF_ASC_NODE":174.4671,"ARG_OF_PERICENTER":308.7219,"MEAN_ANOMALY":51.2184,"EPHEMERIS_TYPE":0,"CLASSIFICATION_TYPE":"U","NORAD_CAT_ID":39761,"ELEMENT_SET_NO":999,"REV_AT_EPOCH":53447,"BSTAR":0.00049222,"MEAN_MOTION_DOT":7.8e-7,"MEAN_MOTION_DDOT":0},{"OBJECT_NAME":"COSMOS 2497 (RODNIK-S 11)","OBJECT_ID":"2014-028B","EPOCH":"2026-03-04T04:35:23.741664","MEAN_MOTION":12.4287487,"ECCENTRICITY":0.0019297,"INCLINATION":82.4548,"RA_OF_ASC_NODE":176.1304,"ARG_OF_PERICENTER":303.6518,"MEAN_ANOMALY":56.272,"EPHEMERIS_TYPE":0,"CLASSIFICATION_TYPE":"U","NORAD_CAT_ID":39762,"ELEMENT_SET_NO":999,"REV_AT_EPOCH":53447,"BSTAR":0.00098779,"MEAN_MOTION_DOT":1.47e-6,"MEAN_MOTION_DDOT":0},{"OBJECT_NAME":"COSMOS 2498 (RODNIK-S 12)","OBJECT_ID":"2014-028C","EPOCH":"2026-03-04T04:13:55.424352","MEAN_MOTION":12.42976857,"ECCENTRICITY":0.0019985,"INCLINATION":82.4509,"RA_OF_ASC_NODE":174.6731,"ARG_OF_PERICENTER":302.9875,"MEAN_ANOMALY":56.9283,"EPHEMERIS_TYPE":0,"CLASSIFICATION_TYPE":"U","NORAD_CAT_ID":39763,"ELEMENT_SET_NO":999,"REV_AT_EPOCH":53450,"BSTAR":0.00087835,"MEAN_MOTION_DOT":1.32e-6,"MEAN_MOTION_DDOT":0},{"OBJECT_NAME":"COSMOS 2499 (RS47)","OBJECT_ID":"2014-028E","EPOCH":"2026-03-04T03:36:51.548832","MEAN_MOTION":12.82900683,"ECCENTRICITY":0.023049,"INCLINATION":82.4531,"RA_OF_ASC_NODE":323.3208,"ARG_OF_PERICENTER":248.2013,"MEAN_ANOMALY":109.4425,"EPHEMERIS_TYPE":0,"CLASSIFICATION_TYPE":"U","NORAD_CAT_ID":39765,"ELEMENT_SET_NO":999,"REV_AT_EPOCH":55155,"BSTAR":8.2559e-5,"MEAN_MOTION_DOT":3.1e-7,"MEAN_MOTION_DDOT":0},{"OBJECT_NAME":"HODOYOSHI-4","OBJECT_ID":"2014-033B","EPOCH":"2026-03-04T04:43:42.399264","MEAN_MOTION":14.87815653,"ECCENTRICITY":0.0022537,"INCLINATION":97.5437,"RA_OF_ASC_NODE":253.0955,"ARG_OF_PERICENTER":295.3226,"MEAN_ANOMALY":64.5657,"EPHEMERIS_TYPE":0,"CLASSIFICATION_TYPE":"U","NORAD_CAT_ID":40011,"ELEMENT_SET_NO":999,"REV_AT_EPOCH":63319,"BSTAR":0.00012864,"MEAN_MOTION_DOT":1.128e-5,"MEAN_MOTION_DDOT":0},{"OBJECT_NAME":"UNISAT-6","OBJECT_ID":"2014-033C","EPOCH":"2026-03-04T00:33:36.179424","MEAN_MOTION":14.87585895,"ECCENTRICITY":0.0046387,"INCLINATION":97.7711,"RA_OF_ASC_NODE":217.7181,"ARG_OF_PERICENTER":56.2156,"MEAN_ANOMALY":304.3466,"EPHEMERIS_TYPE":0,"CLASSIFICATION_TYPE":"U","NORAD_CAT_ID":40012,"ELEMENT_SET_NO":999,"REV_AT_EPOCH":63052,"BSTAR":0.00056107,"MEAN_MOTION_DOT":5.144e-5,"MEAN_MOTION_DDOT":0},{"OBJECT_NAME":"DEIMOS-2","OBJECT_ID":"2014-033D","EPOCH":"2026-03-04T03:13:39.471168","MEAN_MOTION":14.93381536,"ECCENTRICITY":0.0001269,"INCLINATION":97.5989,"RA_OF_ASC_NODE":301.2404,"ARG_OF_PERICENTER":57.5105,"MEAN_ANOMALY":302.6237,"EPHEMERIS_TYPE":0,"CLASSIFICATION_TYPE":"U","NORAD_CAT_ID":40013,"ELEMENT_SET_NO":999,"REV_AT_EPOCH":62204,"BSTAR":0.00040426,"MEAN_MOTION_DOT":4.189e-5,"MEAN_MOTION_DDOT":0},{"OBJECT_NAME":"BUGSAT-1 (TITA)","OBJECT_ID":"2014-033E","EPOCH":"2026-03-04T05:17:29.826240","MEAN_MOTION":15.1440959,"ECCENTRICITY":0.0029079,"INCLINATION":98.0446,"RA_OF_ASC_NODE":149.7342,"ARG_OF_PERICENTER":176.6934,"MEAN_ANOMALY":183.4494,"EPHEMERIS_TYPE":0,"CLASSIFICATION_TYPE":"U","NORAD_CAT_ID":40014,"ELEMENT_SET_NO":999,"REV_AT_EPOCH":63994,"BSTAR":0.00035167,"MEAN_MOTION_DOT":6.451e-5,"MEAN_MOTION_DDOT":0},{"OBJECT_NAME":"SAUDISAT 4","OBJECT_ID":"2014-033G","EPOCH":"2026-03-04T00:23:56.704128","MEAN_MOTION":14.79377629,"ECCENTRICITY":0.0046055,"INCLINATION":97.74,"RA_OF_ASC_NODE":212.8942,"ARG_OF_PERICENTER":56.7905,"MEAN_ANOMALY":303.771,"EPHEMERIS_TYPE":0,"CLASSIFICATION_TYPE":"U","NORAD_CAT_ID":40016,"ELEMENT_SET_NO":999,"REV_AT_EPOCH":63052,"BSTAR":0.00017007,"MEAN_MOTION_DOT":1.239e-5,"MEAN_MOTION_DDOT":0},{"OBJECT_NAME":"APRIZESAT 9","OBJECT_ID":"2014-033J","EPOCH":"2026-03-03T07:40:16.969440","MEAN_MOTION":14.74055785,"ECCENTRICITY":0.00663948,"INCLINATION":97.8869,"RA_OF_ASC_NODE":198.2216,"ARG_OF_PERICENTER":179.5739,"MEAN_ANOMALY":180.5538,"EPHEMERIS_TYPE":0,"CLASSIFICATION_TYPE":"U","NORAD_CAT_ID":40018,"ELEMENT_SET_NO":999,"REV_AT_EPOCH":62796,"BSTAR":0.0002120113,"MEAN_MOTION_DOT":1.393e-5,"MEAN_MOTION_DDOT":0},{"OBJECT_NAME":"BRITE-CA1 (TORONTO)","OBJECT_ID":"2014-033L","EPOCH":"2026-03-03T07:25:15.093408","MEAN_MOTION":14.72440643,"ECCENTRICITY":0.00776971,"INCLINATION":97.9556,"RA_OF_ASC_NODE":193.3093,"ARG_OF_PERICENTER":255.6268,"MEAN_ANOMALY":103.6306,"EPHEMERIS_TYPE":0,"CLASSIFICATION_TYPE":"U","NORAD_CAT_ID":40020,"ELEMENT_SET_NO":999,"REV_AT_EPOCH":62663,"BSTAR":0.00025975949,"MEAN_MOTION_DOT":1.673e-5,"MEAN_MOTION_DDOT":0},{"OBJECT_NAME":"DUCHIFAT-1","OBJECT_ID":"2014-033M","EPOCH":"2026-03-04T01:56:54.816864","MEAN_MOTION":15.49015163,"ECCENTRICITY":0.0006589,"INCLINATION":98.0636,"RA_OF_ASC_NODE":108.8507,"ARG_OF_PERICENTER":100.6139,"MEAN_ANOMALY":259.5852,"EPHEMERIS_TYPE":0,"CLASSIFICATION_TYPE":"U","NORAD_CAT_ID":40021,"ELEMENT_SET_NO":999,"REV_AT_EPOCH":63940,"BSTAR":0.0014393,"MEAN_MOTION_DOT":0.00078555,"MEAN_MOTION_DDOT":0},{"OBJECT_NAME":"NANOSATC-BR1","OBJECT_ID":"2014-033Q","EPOCH":"2026-03-04T00:33:41.887872","MEAN_MOTION":15.27859132,"ECCENTRICITY":0.0004002,"INCLINATION":98.0836,"RA_OF_ASC_NODE":86.3172,"ARG_OF_PERICENTER":164.1002,"MEAN_ANOMALY":196.0362,"EPHEMERIS_TYPE":0,"CLASSIFICATION_TYPE":"U","NORAD_CAT_ID":40024,"ELEMENT_SET_NO":999,"REV_AT_EPOCH":63790,"BSTAR":0.00098782,"MEAN_MOTION_DOT":0.00026861,"MEAN_MOTION_DDOT":0}]
