COSMOS 2490 (RODNIK-S 9)
1 39485U 13076C   26063.17675378  .00000013  00000+0  20406-4 0  9996
2 39485  82.4778 233.5730 0020875 342.3288  17.7063 12.42874035552835
AIST-1 (RS41)           
1 39492U 13078C   26063.20921883  .00003653  00000+0  32508-3 0  9993
2 39492  82.4185  12.5464 0015193 270.6004  89.3477 14.95734004659552
KAZEOSAT 1              
1 39731U 14024A   26063.17990521  .00000078  00000+0  36674-4 0  9999
2 39731  98.3299 138.2065 0001045  82.0783 278.0525 14.42031434623420
COSMOS 2496 (RODNIK-S *)
1 39761U 14028A   26063.21482514  .00000078  00000+0  49222-3 0  9991
2 39761  82.4501 174.4671 0018749 308.7219  51.2184 12.42874012534472
COSMOS 2497 (RODNIK-S *)
1 39762U 14028B   26063.19124701  .00000147  00000+0  98779-3 0  9998
2 39762  82.4548 176.1304 0019297 303.6518  56.2720 12.42874870534474
COSMOS 2498 (RODNIK-S *)
1 39763U 14028C   26063.17633593  .00000132  00000+0  87835-3 0  9996
2 39763  82.4509 174.6731 0019985 302.9875  56.9283 12.42976857534504
COSMOS 2499 (RS47)      
1 39765U 14028E   26063.15059663  .00000031  00000+0  82559-4 0  9993
2 39765  82.4531 323.3208 0230490 248.2013 109.4425 12.82900683551559
HODOYOSHI-4             
1 40011U 14033B   26063.19701851  .00001128  00000+0  12864-3 0  9991
2 40011  97.5437 253.0955 0022537 295.3226  64.5657 14.87815653633193
UNISAT-6                
1 40012U 14033C   26063.02333541  .00005144  00000+0  56107-3 0  9991
2 40012  97.7711 217.7181 0046387  56.2156 304.3466 14.87585895630523
DEIMOS-2                
1 40013U 14033D   26063.13448462  .00004189  00000+0  40426-3 0  9998
2 40013  97.5989 301.2404 0001269  57.5105 302.6237 14.93381536622042
BUGSAT-1 (TITA)         
1 40014U 14033E   26063.22048410  .00006451  00000+0  35167-3 0  9998
2 40014  98.0446 149.7342 0029079 176.6934 183.4494 15.14409590639947
SAUDISAT 4              
1 40016U 14033G   26063.01662852  .00001239  00000+0  17007-3 0  9991
2 40016  97.7400 212.8942 0046055  56.7905 303.7710 14.79377629630522
APRIZESAT 9             
1 40018U 14033J   26062.31964085  .00001393  00000+0  21201-3 0  9990
2 40018  97.8869 198.2216 0066394 179.5739 180.5538 14.74055785627966
BRITE-CA1 (TORONTO)     
1 40020U 14033L   26062.30920247  .00001673  00000+0  25976-3 0  9998
2 40020  97.9556 193.3093 0077697 255.6268 103.6306 14.72440643626634
DUCHIFAT-1              
1 40021U 14033M   26063.08119001  .00078555  00000+0  14393-2 0  9996
2 40021  98.0636 108.8507 0006589 100.6139 259.5852 15.49015163639401
NANOSATC-BR1            
1 40024U 14033Q   26063.02340148  .00026861  00000+0  98782-3 0  9999
2 40024  98.0836  86.3172 0004002 164.1002 196.0362 15.27859132637908
